NORAD_CAT_ID,OBJECT_NAME,OBJECT_TYPE,EPOCH,MEAN_MOTION,ECCENTRICITY,INCLINATION,RA_OF_ASC_NODE,ARG_OF_PERICENTER,MEAN_ANOMALY,BSTAR,MEAN_MOTION_DOT,MEAN_MOTION_DDOT,TLE_LINE0,TLE_LINE1,TLE_LINE2,SEMIMAJOR_AXIS,PERIOD,APOGEE,PERIGEE,DECAYED
53897.0,STARLINK-5035,PAYLOAD,2023-07-19 16:35:18,15.0882465,9.51e-05,53.2169,331.6729,98.7322,261.3777,0.0011765,0.00018478,0.0,0 STARLINK-5035,1 53897U 22119M   23200.69118810  .00018478  00000-0  11765-2 0  9998,2 53897  53.2169 331.6729 0000951  98.7322 261.3777 15.08824650 45738,6917.927,95.439,540.45,539.134,0.0
53897.0,STARLINK-5035,PAYLOAD,2023-07-20 18:01:28,15.08855913,9.53e-05,53.2167,326.9148,97.8206,262.2895,0.0012862,0.0002025,0.0,0 STARLINK-5035,1 53897U 22119M   23201.75102868  .00020250  00000-0  12862-2 0  9992,2 53897  53.2167 326.9148 0000953  97.8206 262.2895 15.08855913 45895,6917.832,95.437,540.356,539.037,0.0
53897.0,STARLINK-5035,PAYLOAD,2023-07-21 08:19:57,15.08855074,0.0001497,53.2172,324.2464,48.1615,311.9505,0.00048013,7.365e-05,0.0,0 STARLINK-5035,1 53897U 22119M   23202.34718940  .00007365  00000-0  48013-3 0  9992,2 53897  53.2172 324.2464 0001497  48.1615 311.9505 15.08855074 45988,6917.834,95.437,540.735,538.664,0.0
53897.0,STARLINK-5035,PAYLOAD,2023-07-23 17:33:49,15.08843021,0.0001264,53.2171,313.5326,111.7904,248.3222,0.00046698,7.152e-05,0.0,0 STARLINK-5035,1 53897U 22119M   23204.73182830  .00007152  00000-0  46698-3 0  9991,2 53897  53.2171 313.5326 0001264 111.7904 248.3222 15.08843021 46760,6917.871,95.437,540.611,538.862,0.0
53897.0,STARLINK-5035,PAYLOAD,2023-07-25 12:29:15,15.08834997,0.0001064,53.2162,305.5067,97.0362,263.0751,-3.0187e-05,-7.68e-06,0.0,0 STARLINK-5035,1 53897U 22119M   23206.52031280 -.00000768  00000-0 -30187-4 0  9997,2 53897  53.2162 305.5067 0001064  97.0362 263.0751 15.08834997 47039,6917.896,95.438,540.497,539.025,0.0
53897.0,STARLINK-5035,PAYLOAD,2023-07-26 09:09:15,15.08836751,0.0001107,53.217,301.6396,98.6201,261.4916,0.00019136,2.759e-05,0.0,0 STARLINK-5035,1 53897U 22119M   23207.38143177  .00002759  00000-0  19136-3 0  9991,2 53897  53.2170 301.6396 0001107  98.6201 261.4916 15.08836751 47166,6917.89,95.438,540.521,538.99,0.0
53897.0,STARLINK-5035,PAYLOAD,2023-07-26 15:30:48,15.08846944,0.0001695,53.2147,300.4531,64.3488,295.7679,0.00022316,3.266e-05,0.0,0 STARLINK-5035,1 53897U 22119M   23207.64638936  .00003266  00000-0  22316-3 0  9990,2 53897  53.2147 300.4531 0001695  64.3488 295.7679 15.08846944 46785,6917.859,95.437,540.897,538.552,0.0
53897.0,STARLINK-5035,PAYLOAD,2023-07-27 15:21:34,15.08844322,0.0001116,53.2153,295.9927,71.4035,288.7078,0.00010876,1.444e-05,0.0,0 STARLINK-5035,1 53897U 22119M   23208.63998750  .00001444  00000-0  10876-3 0  9997,2 53897  53.2153 295.9927 0001116  71.4035 288.7078 15.08844322 46934,6917.867,95.437,540.504,538.96,0.0
53897.0,STARLINK-5035,PAYLOAD,2023-07-27 23:18:30,15.0883889,0.0001232,53.2169,294.5031,80.751,279.3622,-4.9293e-05,-1.072e-05,0.0,0 STARLINK-5035,1 53897U 22119M   23208.97118949 -.00001072  00000-0 -49293-4 0  9993,2 53897  53.2169 294.5031 0001232  80.7510 279.3622 15.08838890 46981,6917.884,95.438,540.601,538.896,0.0
53897.0,STARLINK-5035,PAYLOAD,2023-07-28 16:47:45,15.08832919,0.0001168,53.2169,291.2324,87.2018,272.9108,-0.0001378,-2.48e-05,0.0,0 STARLINK-5035,1 53897U 22119M   23209.69983510 -.00002480  00000-0 -13780-3 0  9992,2 53897  53.2169 291.2324 0001168  87.2018 272.9108 15.08832919 47090,6917.902,95.438,540.575,538.959,0.0
53897.0,STARLINK-5035,PAYLOAD,2023-07-29 10:16:59,15.08841971,0.0001084,53.2172,287.9626,77.6572,282.4541,4.2526e-05,3.89e-06,0.0,0 STARLINK-5035,1 53897U 22119M   23210.42847095  .00000389  00000-0  42526-4 0  9997,2 53897  53.2172 287.9626 0001084  77.6572 282.4541 15.08841971 47204,6917.874,95.437,540.489,538.989,0.0
53897.0,STARLINK-5035,PAYLOAD,2023-07-29 16:38:31,15.08845524,0.000111,53.2175,286.7712,93.6148,266.4971,0.00018301,2.626e-05,0.0,0 STARLINK-5035,1 53897U 22119M   23210.69342440  .00002626  00000-0  18301-3 0  9999,2 53897  53.2175 286.7712 0001110  93.6148 266.4971 15.08845524 47248,6917.864,95.437,540.496,538.961,0.0
53897.0,STARLINK-5035,PAYLOAD,2023-07-30 10:07:47,15.08831512,0.0001103,53.2169,283.4997,99.9311,260.1805,0.00010493,1.382e-05,0.0,0 STARLINK-5035,1 53897U 22119M   23211.42207952  .00001382  00000-0  10493-3 0  9991,2 53897  53.2169 283.4997 0001103  99.9311 260.1805 15.08831512 47354,6917.906,95.438,540.534,539.008,0.0
53897.0,STARLINK-5035,PAYLOAD,2023-07-30 14:53:56,15.0884144,0.0001069,53.2174,282.6081,92.247,267.8644,0.00016073,2.271e-05,0.0,0 STARLINK-5035,1 53897U 22119M   23211.62079360  .00002271  00000-0  16073-3 0  9991,2 53897  53.2174 282.6081 0001069  92.2470 267.8644 15.08841440 47387,6917.876,95.437,540.481,539.001,0.0
53897.0,STARLINK-5035,PAYLOAD,2023-07-31 16:20:06,15.08852047,0.0001077,53.2161,277.8515,87.9576,272.154,0.0002473,3.651e-05,0.0,0 STARLINK-5035,1 53897U 22119M   23212.68063078  .00003651  00000-0  24730-3 0  9999,2 53897  53.2161 277.8515 0001077  87.9576 272.1540 15.08852047 47545,6917.844,95.437,540.454,538.964,0.0
53897.0,STARLINK-5035,PAYLOAD,2023-07-31 21:06:15,15.08837931,5.79e-05,53.2163,276.9618,189.54,170.5581,-6.6807e-05,-1.351e-05,0.0,0 STARLINK-5035,1 53897U 22119M   23212.87935026 -.00001351  00000-0 -66807-4 0  9990,2 53897  53.2163 276.9618 0000579 189.5400 170.5581 15.08837931 47576,6917.887,95.438,540.152,539.351,0.0
53897.0,STARLINK-5035,PAYLOAD,2023-08-02 09:40:08,15.0884172,9.42e-05,53.2146,270.1187,85.4715,274.6385,0.00017705,2.531e-05,0.0,0 STARLINK-5035,1 53897U 22119M   23214.40287731  .00002531  00000-0  17705-3 0  9995,2 53897  53.2146 270.1187 0000942  85.4715 274.6385 15.08841720 47806,6917.875,95.437,540.392,539.088,0.0
53897.0,STARLINK-5035,PAYLOAD,2023-08-03 15:52:27,15.08851632,0.0001044,53.2146,264.4687,85.3107,274.8005,0.00034576,5.221e-05,0.0,0 STARLINK-5035,1 53897U 22119M   23215.66143415  .00005221  00000-0  34576-3 0  9998,2 53897  53.2146 264.4687 0001044  85.3107 274.8005 15.08851632 47999,6917.845,95.437,540.432,538.988,0.0
53897.0,STARLINK-5035,PAYLOAD,2023-08-04 03:00:10,15.08829467,5.82e-05,53.2153,262.3883,90.1736,269.9323,-0.00018081,-3.163e-05,0.0,0 STARLINK-5035,1 53897U 22119M   23216.12512443 -.00003163  00000-0 -18081-3 0  9999,2 53897  53.2153 262.3883 0000582  90.1736 269.9323 15.08829467 48068,6917.913,95.438,540.18,539.375,0.0
53897.0,STARLINK-5035,PAYLOAD,2023-08-04 09:21:43,15.0883315,0.0001089,53.2137,261.2002,64.2296,295.8809,-4.1496e-05,-9.48e-06,0.0,0 STARLINK-5035,1 53897U 22119M   23216.39008548 -.00000948  00000-0 -41496-4 0  9999,2 53897  53.2137 261.2002 0001089  64.2296 295.8809 15.08833150 48103,6917.901,95.438,540.52,539.013,0.0
53897.0,STARLINK-5035,PAYLOAD,2023-08-05 09:12:30,15.08853927,0.0001188,53.2139,256.738,63.6255,296.4859,0.00084175,0.00013139,0.0,0 STARLINK-5035,1 53897U 22119M   23217.38368363  .00013139  00000-0  84175-3 0  9997,2 53897  53.2139 256.7380 0001188  63.6255 296.4859 15.08853927 48253,6917.838,95.437,540.525,538.881,0.0
53897.0,STARLINK-5035,PAYLOAD,2023-08-06 09:03:16,15.08846131,0.0001251,53.2155,252.2779,82.0904,278.023,0.00012688,1.732e-05,0.0,0 STARLINK-5035,1 53897U 22119M   23218.37727991  .00001732  00000-0  12688-3 0  9999,2 53897  53.2155 252.2779 0001251  82.0904 278.0230 15.08846131 48406,6917.862,95.437,540.592,538.861,0.0
53897.0,STARLINK-5035,PAYLOAD,2023-08-07 02:32:32,15.08832203,0.0001503,53.2164,249.0073,82.9444,277.1719,-0.0001425,-2.555e-05,0.0,0 STARLINK-5035,1 53897U 22119M   23219.10592855 -.00002555  00000-0 -14250-3 0  9993,2 53897  53.2164 249.0073 0001503  82.9444 277.1719 15.08832203 48514,6917.904,95.438,540.809,538.729,0.0
53897.0,STARLINK-5035,PAYLOAD,2023-08-08 08:44:52,15.08835396,9.91e-05,53.2156,243.3553,82.1273,277.9831,4.0374e-05,3.55e-06,0.0,0 STARLINK-5035,1 53897U 22119M   23220.36449705  .00000355  00000-0  40374-4 0  9999,2 53897  53.2156 243.3553 0000991  82.1273 277.9831 15.08835396 48707,6917.894,95.438,540.445,539.074,0.0
53897.0,STARLINK-5035,PAYLOAD,2023-08-09 10:11:03,15.08841574,0.0001001,53.2149,238.5973,81.4474,278.6632,0.0003364,5.07e-05,0.0,0 STARLINK-5035,1 53897U 22119M   23221.42434049  .00005070  00000-0  33640-3 0  9998,2 53897  53.2149 238.5973 0001001  81.4474 278.6632 15.08841574 48868,6917.876,95.437,540.433,539.048,0.0
53897.0,STARLINK-5035,PAYLOAD,2023-08-10 17:58:44,15.08849852,0.0001009,53.214,232.65,79.8628,280.2478,6.2055e-05,7e-06,0.0,0 STARLINK-5035,1 53897U 22119M   23222.74913016  .00000700  00000-0  62055-4 0  9998,2 53897  53.2140 232.6500 0001009  79.8628 280.2478 15.08849852 49067,6917.85,95.437,540.413,539.017,0.0
53897.0,STARLINK-5035,PAYLOAD,2023-08-11 08:17:13,15.08846018,0.0001082,53.2146,229.974,78.6071,281.5043,4.5882e-05,4.43e-06,0.0,0 STARLINK-5035,1 53897U 22119M   23223.34529141  .00000443  00000-0  45882-4 0  9990,2 53897  53.2146 229.9740 0001082  78.6071 281.5043 15.08846018 49151,6917.862,95.437,540.476,538.978,0.0
53897.0,STARLINK-5035,PAYLOAD,2023-08-12 09:43:22,15.08853546,0.000114,53.2155,225.2165,79.0508,281.0613,6.2566e-05,7.08e-06,0.0,0 STARLINK-5035,1 53897U 22119M   23224.40512308  .00000708  00000-0  62566-4 0  9997,2 53897  53.2155 225.2165 0001140  79.0508 281.0613 15.08853546 49316,6917.839,95.437,540.493,538.915,0.0
53897.0,STARLINK-5035,PAYLOAD,2023-08-12 17:40:18,15.08840966,0.0001098,53.2155,223.729,82.1747,277.937,6.7759e-05,7.91e-06,0.0,0 STARLINK-5035,1 53897U 22119M   23224.73632927  .00000791  00000-0  67759-4 0  9994,2 53897  53.2155 223.7290 0001098  82.1747 277.9370 15.08840966 49361,6917.877,95.437,540.502,538.983,0.0
53897.0,STARLINK-5035,PAYLOAD,2023-08-14 09:24:54,15.08864203,0.0001259,53.2157,216.2934,86.8951,273.2185,0.00015888,2.243e-05,0.0,0 STARLINK-5035,1 53897U 22119M   23226.39230096  .00002243  00000-0  15888-3 0  9998,2 53897  53.2157 216.2934 0001259  86.8951 273.2185 15.08864203 49613,6917.806,95.436,540.542,538.8,0.0
